[{"OBJECT_NAME":"STARLINK-5916","OBJECT_ID":"2023-042C","EPOCH":"2026-03-09T07:13:47.626752","MEAN_MOTION":15.02535484,"ECCENTRICITY":0.00012199,"INCLINATION":43.004,"RA_OF_ASC_NODE":58.0864,"ARG_OF_PERICENTER":268.8318,"MEAN_ANOMALY":91.2385,"EPHEMERIS_TYPE":0,"CLASSIFICATION_TYPE":"U","NORAD_CAT_ID":55988,"ELEMENT_SET_NO":999,"REV_AT_EPOCH":16285,"BSTAR":3.2637134e-5,"MEAN_MOTION_DOT":2.37e-6,"MEAN_MOTION_DDOT":0},{"OBJECT_NAME":"COSMOS 2251 DEB","OBJECT_ID":"1993-036APM","EPOCH":"2026-03-04T21:32:54.192480","MEAN_MOTION":14.96947229,"ECCENTRICITY":0.00350755,"INCLINATION":73.891,"RA_OF_ASC_NODE":257.2416,"ARG_OF_PERICENTER":202.261,"MEAN_ANOMALY":157.7054,"EPHEMERIS_TYPE":0,"CLASSIFICATION_TYPE":"U","NORAD_CAT_ID":35670,"ELEMENT_SET_NO":999,"REV_AT_EPOCH":88955,"BSTAR":0.0015922685,"MEAN_MOTION_DOT":0.00018541,"MEAN_MOTION_DDOT":0}]
